ONEWEB-0387             
1 49313U 21090AL  25045.94746706 -.00000092  00000+0 -25701-3 0  9991
2 49313  87.9281  11.4486 0001633  73.0838 287.0474 13.20770228165504
ONEWEB-0388             
1 49314U 21090AM  25046.51238602  .00000065  00000+0  13122-3 0  9999
2 49314  87.9160  41.7159 0001724  89.2388 270.8942 13.19725454163512
ONEWEB-0389             
1 50469U 21132A   25045.91630386  .00000104  00000+0  23491-3 0  9991
2 50469  87.9052 102.9510 0001529  94.2915 265.8391 13.17647171153913
ONEWEB-0390             
1 50470U 21132B   25045.91801026  .00000182  00000+0  43619-3 0  9994
2 50470  87.9051 102.9577 0002018  91.6116 268.5247 13.17649747153916
ONEWEB-0391             
1 50471U 21132C   25046.37530387  .00000079  00000+0  16902-3 0  9995
2 50471  87.9064 102.8693 0001323  74.8847 285.2430 13.17650435155267
ONEWEB-0392             
1 50472U 21132D   25045.87411923  .00000000  00000+0 -34397-4 0  9998
2 50472  87.9046 102.9348 0001483  93.3193 266.8108 13.17648550153948
ONEWEB-0393             
1 50473U 21132E   25046.53069214  .00000004  00000+0 -22113-4 0  9992
2 50473  87.9057 102.8049 0001764  96.0142 264.1191 13.17648454155313
ONEWEB-0394             
1 50474U 21132F   25045.97073757 -.00000023  00000+0 -92042-4 0  9997
2 50474  87.9046  72.3444 0001762  93.6214 266.5119 13.18684887157389
